NORAD_CAT_ID,OBJECT_NAME,OBJECT_TYPE,EPOCH,MEAN_MOTION,ECCENTRICITY,INCLINATION,RA_OF_ASC_NODE,ARG_OF_PERICENTER,MEAN_ANOMALY,BSTAR,MEAN_MOTION_DOT,MEAN_MOTION_DDOT,TLE_LINE0,TLE_LINE1,TLE_LINE2,SEMIMAJOR_AXIS,PERIOD,APOGEE,PERIGEE,DECAYED
53964.0,STARLINK-4633,PAYLOAD,2023-04-02 21:12:27,15.08844376,0.0001614,53.2171,355.8022,108.0996,252.0172,0.00019837,2.871e-05,0.0,0 STARLINK-4633,1 53964U 22125A   23092.88364941  .00002871  00000-0  19837-3 0  9997,2 53964  53.2171 355.8022 0001614 108.0996 252.0172 15.08844376 27518,6917.867,95.437,540.849,538.615,0.0
53964.0,STARLINK-4633,PAYLOAD,2023-04-03 03:33:59,15.08857981,0.0001409,53.2178,354.6142,94.1619,265.9534,0.00071664,0.00011141,0.0,0 STARLINK-4633,1 53964U 22125A   23093.14860736  .00011141  00000-0  71664-3 0  9996,2 53964  53.2178 354.6142 0001409  94.1619 265.9534 15.08857981 27627,6917.825,95.436,540.665,538.716,0.0
53964.0,STARLINK-4633,PAYLOAD,2023-04-03 21:03:14,15.08842486,0.0001323,53.2175,351.3436,106.9677,253.1461,0.00013348,1.837e-05,0.0,0 STARLINK-4633,1 53964U 22125A   23093.87725056  .00001837  00000-0  13348-3 0  9997,2 53964  53.2175 351.3436 0001323 106.9677 253.1461 15.08842486 27661,6917.873,95.437,540.653,538.823,0.0
53964.0,STARLINK-4633,PAYLOAD,2023-04-03 22:38:37,15.08844866,0.000134,53.2174,351.0464,107.555,252.5588,0.00021202,3.088e-05,0.0,0 STARLINK-4633,1 53964U 22125A   23093.94349009  .00003088  00000-0  21202-3 0  9993,2 53964  53.2174 351.0464 0001340 107.5550 252.5588 15.08844866 27740,6917.866,95.437,540.658,538.804,0.0
53964.0,STARLINK-4633,PAYLOAD,2023-04-04 03:24:46,15.0885774,0.0001333,53.2174,350.1537,109.0207,251.093,0.00061572,9.53e-05,0.0,0 STARLINK-4633,1 53964U 22125A   23094.14220675  .00009530  00000-0  61572-3 0  9995,2 53964  53.2174 350.1537 0001333 109.0207 251.0930 15.08857740 27772,6917.826,95.436,540.613,538.769,0.0
53964.0,STARLINK-4633,PAYLOAD,2023-04-04 20:54:01,15.08836652,0.0001227,53.2169,346.8826,123.5774,236.5336,0.00060334,9.326e-05,0.0,0 STARLINK-4633,1 53964U 22125A   23094.87085076  .00009326  00000-0  60334-3 0  9997,2 53964  53.2169 346.8826 0001227 123.5774 236.5336 15.08836652 27813,6917.891,95.438,540.604,538.907,0.0
53964.0,STARLINK-4633,PAYLOAD,2023-04-05 01:40:10,15.08842803,0.0001218,53.2168,345.9906,122.9287,237.1822,0.00083873,0.00013087,0.0,0 STARLINK-4633,1 53964U 22125A   23095.06957117  .00013087  00000-0  83873-3 0  9995,2 53964  53.2168 345.9906 0001218 122.9287 237.1822 15.08842803 27916,6917.872,95.437,540.579,538.894,0.0
53964.0,STARLINK-4633,PAYLOAD,2023-04-05 03:15:34,15.08843441,0.0001249,53.2169,345.6927,110.5634,249.5492,0.00076888,0.00011971,0.0,0 STARLINK-4633,1 53964U 22125A   23095.13581148  .00011971  00000-0  76888-3 0  9998,2 53964  53.2169 345.6927 0001249 110.5634 249.5492 15.08843441 27852,6917.87,95.437,540.599,538.871,0.0
53964.0,STARLINK-4633,PAYLOAD,2023-04-05 20:44:48,15.08838468,0.0001312,53.2164,342.4213,101.6997,258.4142,0.00017295,2.466e-05,0.0,0 STARLINK-4633,1 53964U 22125A   23095.86445382  .00002466  00000-0  17295-3 0  9993,2 53964  53.2164 342.4213 0001312 101.6997 258.4142 15.08838468 27960,6917.885,95.438,540.658,538.842,0.0
53964.0,STARLINK-4633,PAYLOAD,2023-04-05 23:55:35,15.08841057,0.0001233,53.2167,341.8263,105.2525,254.8603,0.00014886,2.082e-05,0.0,0 STARLINK-4633,1 53964U 22125A   23095.99693304  .00002082  00000-0  14886-3 0  9993,2 53964  53.2167 341.8263 0001233 105.2525 254.8603 15.08841057 28051,6917.877,95.437,540.595,538.889,0.0
53964.0,STARLINK-4633,PAYLOAD,2023-04-06 22:10:59,15.08836975,0.0001276,53.2167,337.6621,95.6462,264.4675,0.0002927,4.373e-05,0.0,0 STARLINK-4633,1 53964U 22125A   23096.92429773  .00004373  00000-0  29270-3 0  9992,2 53964  53.2167 337.6621 0001276  95.6462 264.4675 15.08836975 28128,6917.89,95.438,540.637,538.872,0.0
53964.0,STARLINK-4633,PAYLOAD,2023-04-06 23:46:22,15.08840836,0.0001146,53.2167,337.3645,87.0839,273.0284,0.00012727,1.738e-05,0.0,0 STARLINK-4633,1 53964U 22125A   23096.99053559  .00001738  00000-0  12727-3 0  9995,2 53964  53.2167 337.3645 0001146  87.0839 273.0284 15.08840836 28202,6917.878,95.438,540.536,538.95,0.0
53964.0,STARLINK-4633,PAYLOAD,2023-04-08 01:12:32,15.08853176,0.0001173,53.2169,332.6097,77.2603,282.852,0.00031026,4.655e-05,0.0,0 STARLINK-4633,1 53964U 22125A   23098.05037059  .00004655  00000-0  31026-3 0  9995,2 53964  53.2169 332.6097 0001173  77.2603 282.8520 15.08853176 28362,6917.84,95.437,540.517,538.894,0.0
53964.0,STARLINK-4633,PAYLOAD,2023-04-08 15:31:00,15.08840294,0.0001249,53.2167,329.9348,82.7957,277.3177,5.5935e-05,6.02e-06,0.0,0 STARLINK-4633,1 53964U 22125A   23098.64653627  .00000602  00000-0  55935-4 0  9999,2 53964  53.2167 329.9348 0001249  82.7957 277.3177 15.08840294 28459,6917.879,95.438,540.609,538.88,0.0
53964.0,STARLINK-4633,PAYLOAD,2023-04-09 01:03:19,15.08844514,0.0001249,53.2163,328.149,82.4453,277.6681,0.00015906,2.245e-05,0.0,0 STARLINK-4633,1 53964U 22125A   23099.04397517  .00002245  00000-0  15906-3 0  9995,2 53964  53.2163 328.1490 0001249  82.4453 277.6681 15.08844514 28443,6917.867,95.437,540.596,538.868,0.0
53964.0,STARLINK-4633,PAYLOAD,2023-04-09 16:57:11,15.088389,0.0001283,53.2166,325.1752,85.1086,275.0053,2.933e-05,1.79e-06,0.0,0 STARLINK-4633,1 53964U 22125A   23099.70637790  .00000179  00000-0  29330-4 0  9999,2 53964  53.2166 325.1752 0001283  85.1086 275.0053 15.08838900 28610,6917.884,95.438,540.636,538.861,0.0
53964.0,STARLINK-4633,PAYLOAD,2023-04-09 21:43:20,15.08845282,0.0001316,53.2165,324.2844,81.8233,278.2909,0.00017724,2.534e-05,0.0,0 STARLINK-4633,1 53964U 22125A   23099.90509589  .00002534  00000-0  17724-3 0  9995,2 53964  53.2165 324.2844 0001316  81.8233 278.2909 15.08845282 28576,6917.864,95.437,540.64,538.819,0.0
53964.0,STARLINK-4633,PAYLOAD,2023-04-10 00:54:06,15.08848139,0.0001271,53.2161,323.6887,81.2711,278.8425,0.00023965,3.529e-05,0.0,0 STARLINK-4633,1 53964U 22125A   23100.03757466  .00003529  00000-0  23965-3 0  9990,2 53964  53.2161 323.6887 0001271  81.2711 278.8425 15.08848139 28660,6917.856,95.437,540.6,538.841,0.0
53964.0,STARLINK-4633,PAYLOAD,2023-04-10 21:34:06,15.08855256,0.0001305,53.2156,319.8227,81.8916,278.2224,0.00035608,5.386e-05,0.0,0 STARLINK-4633,1 53964U 22125A   23100.89868838  .00005386  00000-0  35608-3 0  9990,2 53964  53.2156 319.8227 0001305  81.8916 278.2224 15.08855256 28726,6917.834,95.437,540.602,538.796,0.0
53964.0,STARLINK-4633,PAYLOAD,2023-04-11 00:44:52,15.08862351,0.0001304,53.2156,319.2262,78.7567,281.3572,0.00043485,6.644e-05,0.0,0 STARLINK-4633,1 53964U 22125A   23101.03116459  .00006644  00000-0  43485-3 0  9992,2 53964  53.2156 319.2262 0001304  78.7567 281.3572 15.08862351 28742,6917.812,95.436,540.579,538.775,0.0
53964.0,STARLINK-4633,PAYLOAD,2023-04-11 21:24:54,15.08834904,0.0001024,53.2153,315.3612,95.9611,264.1498,-0.00016687,-2.942e-05,0.0,0 STARLINK-4633,1 53964U 22125A   23101.89229266 -.00002942  00000-0 -16687-3 0  9990,2 53964  53.2153 315.3612 0001024  95.9611 264.1498 15.08834904 28878,6917.896,95.438,540.469,539.053,0.0
53964.0,STARLINK-4633,PAYLOAD,2023-04-12 00:35:40,15.08835663,0.0001116,53.2151,314.7663,98.748,261.3638,-0.00010721,-1.993e-05,0.0,0 STARLINK-4633,1 53964U 22125A   23102.02477313 -.00001993  00000-0 -10721-3 0  9992,2 53964  53.2151 314.7663 0001116  98.7480 261.3638 15.08835663 28960,6917.894,95.438,540.531,538.987,0.0
53964.0,STARLINK-4633,PAYLOAD,2023-04-13 00:26:27,15.08835619,0.0001443,53.213,310.3059,110.2323,249.8825,0.00016119,2.278e-05,0.0,0 STARLINK-4633,1 53964U 22125A   23103.01837960  .00002278  00000-0  16119-3 0  9992,2 53964  53.2130 310.3059 0001443 110.2323 249.8825 15.08835619 29047,6917.894,95.438,540.757,538.761,0.0
53964.0,STARLINK-4633,PAYLOAD,2023-04-13 22:41:51,15.08850468,9.44e-05,53.215,306.1427,95.4716,264.6384,0.00046612,7.14e-05,0.0,0 STARLINK-4633,1 53964U 22125A   23103.94573749  .00007140  00000-0  46612-3 0  9990,2 53964  53.2150 306.1427 0000944  95.4716 264.6384 15.08850468 29253,6917.848,95.437,540.366,539.06,0.0
53964.0,STARLINK-4633,PAYLOAD,2023-04-14 13:00:20,15.08847,0.0001244,53.2146,303.4668,79.0189,281.0943,0.00033452,5.041e-05,0.0,0 STARLINK-4633,1 53964U 22125A   23104.54190037  .00005041  00000-0  33452-3 0  9998,2 53964  53.2146 303.4668 0001244  79.0189 281.0943 15.08847000 29275,6917.859,95.437,540.585,538.863,0.0
53964.0,STARLINK-4633,PAYLOAD,2023-04-14 19:21:52,15.08852271,0.0001361,53.2144,302.2771,83.6363,276.4784,0.00044237,6.762e-05,0.0,0 STARLINK-4633,1 53964U 22125A   23104.80685799  .00006762  00000-0  44237-3 0  9995,2 53964  53.2144 302.2771 0001361  83.6363 276.4784 15.08852271 29389,6917.843,95.437,540.649,538.766,0.0
53964.0,STARLINK-4633,PAYLOAD,2023-04-15 12:51:07,15.08849233,0.000156,53.2138,299.0059,76.6927,283.4239,0.0004524,6.921e-05,0.0,0 STARLINK-4633,1 53964U 22125A   23105.53549889  .00006921  00000-0  45240-3 0  9997,2 53964  53.2138 299.0059 0001560  76.6927 283.4239 15.08849233 29425,6917.852,95.437,540.796,538.638,0.0
53964.0,STARLINK-4633,PAYLOAD,2023-04-15 19:12:39,15.08849188,9.58e-05,53.2143,297.8163,82.5711,277.539,0.00046749,7.162e-05,0.0,0 STARLINK-4633,1 53964U 22125A   23105.80045739  .00007162  00000-0  46749-3 0  9995,2 53964  53.2143 297.8163 0000958  82.5711 277.5390 15.08849188 29533,6917.852,95.437,540.38,539.055,0.0
53964.0,STARLINK-4633,PAYLOAD,2023-04-15 23:58:48,15.08860021,0.0001016,53.2146,296.9239,83.6984,276.4124,0.00091251,0.00014272,0.0,0 STARLINK-4633,1 53964U 22125A   23105.99917514  .00014272  00000-0  91251-3 0  9992,2 53964  53.2146 296.9239 0001016  83.6984 276.4124 15.08860021 29497,6917.819,95.436,540.387,538.981,0.0
53964.0,STARLINK-4633,PAYLOAD,2023-04-16 19:03:26,15.08843669,0.00011,53.2128,293.356,92.6621,267.4497,0.00029986,4.488e-05,0.0,0 STARLINK-4633,1 53964U 22125A   23106.79405979  .00004488  00000-0  29986-3 0  9992,2 53964  53.2128 293.3560 0001100  92.6621 267.4497 15.08843669 29613,6917.869,95.437,540.495,538.973,0.0
